UNKNOWN                 
1 81614U          26054.43901606  .00006077  00000+0  37272-1 0  9997
2 81614 101.8375  53.0626 0367012  11.4053 349.5057 12.38009940546972
UNKNOWN                 
1 81615U          26053.99462364  .00002942  00000+0  10709-2 0  9995
2 81615  65.8256 253.7229 0767569 102.7668 266.0211 13.34377029592503
UNKNOWN                 
1 81617U          26054.42147218  .00000310  00000+0  20948-2 0  9997
2 81617 101.2657 230.7203 0032801 101.8793 258.5964 12.57594100562249
UNKNOWN                 
1 81624U          26047.22729119  .00006032  00000+0  94278-3 0  9996
2 81624  66.9773 345.8344 0064647 185.4038 174.6395 14.72070319649343
UNKNOWN                 
1 81640U          26050.82442134  .00000544  00000+0  55206-3 0  9993
2 81640  65.8288 350.6975 0978246  49.4346 318.7742 12.57276936518766
UNKNOWN                 
1 81652U          26054.25053509  .00000321  00000+0  44022-3 0  9998
2 81652 102.1461 322.7856 0363731 197.7456 316.7268 13.44488126588391
UNKNOWN                 
1 81667U          26054.26058044  .00002432  00000+0  65488-3 0  9998
2 81667  74.0342 260.7960 0015641 177.3870 182.7374 14.48441767467140
UNKNOWN                 
1 81674U          26035.53700502  .00000896  00000+0  55035-3 0  9997
2 81674  66.8209 228.7911 0026829 195.9151 195.3195 14.10064697621300
UNKNOWN                 
1 81683U          26054.44068569  .00003654  00000+0  79062-3 0  9999
2 81683  81.2154 218.6677 0023644  75.9302 284.4521 14.57924541646454
UNKNOWN                 
1 81693U          26033.60328402  .00000950  00000+0  71303-2 0  9995
2 81693 101.0975  94.3495 0365424 344.6978  14.3266 12.25967259974124
UNKNOWN                 
1 81745U          26039.28286455  .00002174  00000+0  69616-3 0  9999
2 81745  70.9995 261.5394 0003672 149.7279 210.4070 14.40678835638033
UNKNOWN                 
1 81775U          26054.27481580  .00006936  00000+0  21056-2 0  9999
2 81775  82.9208 164.1252 0013653  27.1884 333.0021 14.42030622635727
