CCSDS_OMM_VERS = 2.0
CREATION_DATE  = 
ORIGINATOR     = 

OBJECT_NAME    = UNKNOWN
OBJECT_ID      = 
CENTER_NAME    = EARTH
REF_FRAME      = TEME
TIME_SYSTEM    = UTC
MEAN_ELEMENT_THEORY = SGP/SGP4

EPOCH          = 2026-02-23T10:32:10.987584
MEAN_MOTION    = 12.38009940
ECCENTRICITY   = .0367012
INCLINATION    = 101.8375
RA_OF_ASC_NODE = 53.0626
ARG_OF_PERICENTER = 11.4053
MEAN_ANOMALY   = 349.5057

EPHEMERIS_TYPE = 0
CLASSIFICATION_TYPE = U
NORAD_CAT_ID   = 81614
ELEMENT_SET_NO = 999
REV_AT_EPOCH   = 54697
BSTAR          = .37272E-1
MEAN_MOTION_DOT = .6077E-4
MEAN_MOTION_DDOT = 0

CCSDS_OMM_VERS = 2.0
CREATION_DATE  = 
ORIGINATOR     = 

OBJECT_NAME    = UNKNOWN
OBJECT_ID      = 
CENTER_NAME    = EARTH
REF_FRAME      = TEME
TIME_SYSTEM    = UTC
MEAN_ELEMENT_THEORY = SGP/SGP4

EPOCH          = 2026-02-22T23:52:15.482496
MEAN_MOTION    = 13.34377029
ECCENTRICITY   = .0767569
INCLINATION    = 65.8256
RA_OF_ASC_NODE = 253.7229
ARG_OF_PERICENTER = 102.7668
MEAN_ANOMALY   = 266.0211

EPHEMERIS_TYPE = 0
CLASSIFICATION_TYPE = U
NORAD_CAT_ID   = 81615
ELEMENT_SET_NO = 999
REV_AT_EPOCH   = 59250
BSTAR          = .10709E-2
MEAN_MOTION_DOT = .2942E-4
MEAN_MOTION_DDOT = 0

CCSDS_OMM_VERS = 2.0
CREATION_DATE  = 
ORIGINATOR     = 

OBJECT_NAME    = UNKNOWN
OBJECT_ID      = 
CENTER_NAME    = EARTH
REF_FRAME      = TEME
TIME_SYSTEM    = UTC
MEAN_ELEMENT_THEORY = SGP/SGP4

EPOCH          = 2026-02-23T10:06:55.196352
MEAN_MOTION    = 12.57594100
ECCENTRICITY   = .0032801
INCLINATION    = 101.2657
RA_OF_ASC_NODE = 230.7203
ARG_OF_PERICENTER = 101.8793
MEAN_ANOMALY   = 258.5964

EPHEMERIS_TYPE = 0
CLASSIFICATION_TYPE = U
NORAD_CAT_ID   = 81617
ELEMENT_SET_NO = 999
REV_AT_EPOCH   = 56224
BSTAR          = .20948E-2
MEAN_MOTION_DOT = .31E-5
MEAN_MOTION_DDOT = 0

CCSDS_OMM_VERS = 2.0
CREATION_DATE  = 
ORIGINATOR     = 

OBJECT_NAME    = UNKNOWN
OBJECT_ID      = 
CENTER_NAME    = EARTH
REF_FRAME      = TEME
TIME_SYSTEM    = UTC
MEAN_ELEMENT_THEORY = SGP/SGP4

EPOCH          = 2026-02-16T05:27:17.958816
MEAN_MOTION    = 14.72070319
ECCENTRICITY   = .0064647
INCLINATION    = 66.9773
RA_OF_ASC_NODE = 345.8344
ARG_OF_PERICENTER = 185.4038
MEAN_ANOMALY   = 174.6395

EPHEMERIS_TYPE = 0
CLASSIFICATION_TYPE = U
NORAD_CAT_ID   = 81624
ELEMENT_SET_NO = 999
REV_AT_EPOCH   = 64934
BSTAR          = .94278E-3
MEAN_MOTION_DOT = .6032E-4
MEAN_MOTION_DDOT = 0

CCSDS_OMM_VERS = 2.0
CREATION_DATE  = 
ORIGINATOR     = 

OBJECT_NAME    = UNKNOWN
OBJECT_ID      = 
CENTER_NAME    = EARTH
REF_FRAME      = TEME
TIME_SYSTEM    = UTC
MEAN_ELEMENT_THEORY = SGP/SGP4

EPOCH          = 2026-02-19T19:47:10.003776
MEAN_MOTION    = 12.57276936
ECCENTRICITY   = .0978246
INCLINATION    = 65.8288
RA_OF_ASC_NODE = 350.6975
ARG_OF_PERICENTER = 49.4346
MEAN_ANOMALY   = 318.7742

EPHEMERIS_TYPE = 0
CLASSIFICATION_TYPE = U
NORAD_CAT_ID   = 81640
ELEMENT_SET_NO = 999
REV_AT_EPOCH   = 51876
BSTAR          = .55206E-3
MEAN_MOTION_DOT = .544E-5
MEAN_MOTION_DDOT = 0

CCSDS_OMM_VERS = 2.0
CREATION_DATE  = 
ORIGINATOR     = 

OBJECT_NAME    = UNKNOWN
OBJECT_ID      = 
CENTER_NAME    = EARTH
REF_FRAME      = TEME
TIME_SYSTEM    = UTC
MEAN_ELEMENT_THEORY = SGP/SGP4

EPOCH          = 2026-02-23T06:00:46.231776
MEAN_MOTION    = 13.44488126
ECCENTRICITY   = .0363731
INCLINATION    = 102.1461
RA_OF_ASC_NODE = 322.7856
ARG_OF_PERICENTER = 197.7456
MEAN_ANOMALY   = 316.7268

EPHEMERIS_TYPE = 0
CLASSIFICATION_TYPE = U
NORAD_CAT_ID   = 81652
ELEMENT_SET_NO = 999
REV_AT_EPOCH   = 58839
BSTAR          = .44022E-3
MEAN_MOTION_DOT = .321E-5
MEAN_MOTION_DDOT = 0

CCSDS_OMM_VERS = 2.0
CREATION_DATE  = 
ORIGINATOR     = 

OBJECT_NAME    = UNKNOWN
OBJECT_ID      = 
CENTER_NAME    = EARTH
REF_FRAME      = TEME
TIME_SYSTEM    = UTC
MEAN_ELEMENT_THEORY = SGP/SGP4

EPOCH          = 2026-02-23T06:15:14.150016
MEAN_MOTION    = 14.48441767
ECCENTRICITY   = .0015641
INCLINATION    = 74.0342
RA_OF_ASC_NODE = 260.7960
ARG_OF_PERICENTER = 177.3870
MEAN_ANOMALY   = 182.7374

EPHEMERIS_TYPE = 0
CLASSIFICATION_TYPE = U
NORAD_CAT_ID   = 81667
ELEMENT_SET_NO = 999
REV_AT_EPOCH   = 46714
BSTAR          = .65488E-3
MEAN_MOTION_DOT = .2432E-4
MEAN_MOTION_DDOT = 0

CCSDS_OMM_VERS = 2.0
CREATION_DATE  = 
ORIGINATOR     = 

OBJECT_NAME    = UNKNOWN
OBJECT_ID      = 
CENTER_NAME    = EARTH
REF_FRAME      = TEME
TIME_SYSTEM    = UTC
MEAN_ELEMENT_THEORY = SGP/SGP4

EPOCH          = 2026-02-04T12:53:17.233728
MEAN_MOTION    = 14.10064697
ECCENTRICITY   = .0026829
INCLINATION    = 66.8209
RA_OF_ASC_NODE = 228.7911
ARG_OF_PERICENTER = 195.9151
MEAN_ANOMALY   = 195.3195

EPHEMERIS_TYPE = 0
CLASSIFICATION_TYPE = U
NORAD_CAT_ID   = 81674
ELEMENT_SET_NO = 999
REV_AT_EPOCH   = 62130
BSTAR          = .55035E-3
MEAN_MOTION_DOT = .896E-5
MEAN_MOTION_DDOT = 0

CCSDS_OMM_VERS = 2.0
CREATION_DATE  = 
ORIGINATOR     = 

OBJECT_NAME    = UNKNOWN
OBJECT_ID      = 
CENTER_NAME    = EARTH
REF_FRAME      = TEME
TIME_SYSTEM    = UTC
MEAN_ELEMENT_THEORY = SGP/SGP4

EPOCH          = 2026-02-23T10:34:35.243616
MEAN_MOTION    = 14.57924541
ECCENTRICITY   = .0023644
INCLINATION    = 81.2154
RA_OF_ASC_NODE = 218.6677
ARG_OF_PERICENTER = 75.9302
MEAN_ANOMALY   = 284.4521

EPHEMERIS_TYPE = 0
CLASSIFICATION_TYPE = U
NORAD_CAT_ID   = 81683
ELEMENT_SET_NO = 999
REV_AT_EPOCH   = 64645
BSTAR          = .79062E-3
MEAN_MOTION_DOT = .3654E-4
MEAN_MOTION_DDOT = 0

CCSDS_OMM_VERS = 2.0
CREATION_DATE  = 
ORIGINATOR     = 

OBJECT_NAME    = UNKNOWN
OBJECT_ID      = 
CENTER_NAME    = EARTH
REF_FRAME      = TEME
TIME_SYSTEM    = UTC
MEAN_ELEMENT_THEORY = SGP/SGP4

EPOCH          = 2026-02-02T14:28:43.739328
MEAN_MOTION    = 12.25967259
ECCENTRICITY   = .0365424
INCLINATION    = 101.0975
RA_OF_ASC_NODE = 94.3495
ARG_OF_PERICENTER = 344.6978
MEAN_ANOMALY   = 14.3266

EPHEMERIS_TYPE = 0
CLASSIFICATION_TYPE = U
NORAD_CAT_ID   = 81693
ELEMENT_SET_NO = 999
REV_AT_EPOCH   = 97412
BSTAR          = .71303E-2
MEAN_MOTION_DOT = .95E-5
MEAN_MOTION_DDOT = 0

CCSDS_OMM_VERS = 2.0
CREATION_DATE  = 
ORIGINATOR     = 

OBJECT_NAME    = UNKNOWN
OBJECT_ID      = 
CENTER_NAME    = EARTH
REF_FRAME      = TEME
TIME_SYSTEM    = UTC
MEAN_ELEMENT_THEORY = SGP/SGP4

EPOCH          = 2026-02-08T06:47:19.497120
MEAN_MOTION    = 14.40678835
ECCENTRICITY   = .0003672
INCLINATION    = 70.9995
RA_OF_ASC_NODE = 261.5394
ARG_OF_PERICENTER = 149.7279
MEAN_ANOMALY   = 210.4070

EPHEMERIS_TYPE = 0
CLASSIFICATION_TYPE = U
NORAD_CAT_ID   = 81745
ELEMENT_SET_NO = 999
REV_AT_EPOCH   = 63803
BSTAR          = .69616E-3
MEAN_MOTION_DOT = .2174E-4
MEAN_MOTION_DDOT = 0

CCSDS_OMM_VERS = 2.0
CREATION_DATE  = 
ORIGINATOR     = 

OBJECT_NAME    = UNKNOWN
OBJECT_ID      = 
CENTER_NAME    = EARTH
REF_FRAME      = TEME
TIME_SYSTEM    = UTC
MEAN_ELEMENT_THEORY = SGP/SGP4

EPOCH          = 2026-02-23T06:35:44.085120
MEAN_MOTION    = 14.42030622
ECCENTRICITY   = .0013653
INCLINATION    = 82.9208
RA_OF_ASC_NODE = 164.1252
ARG_OF_PERICENTER = 27.1884
MEAN_ANOMALY   = 333.0021

EPHEMERIS_TYPE = 0
CLASSIFICATION_TYPE = U
NORAD_CAT_ID   = 81775
ELEMENT_SET_NO = 999
REV_AT_EPOCH   = 63572
BSTAR          = .21056E-2
MEAN_MOTION_DOT = .6936E-4
MEAN_MOTION_DDOT = 0

